{"type": "FeatureCollection", "features": [ {"type": "Feature", "properties": {"norad_id": 40697, "name": "SENTINEL-2A", "group": "resource", "lat": -72.42316295457591, "lon": 84.6213704615002, "alt_km": 796.9748605207933, "timestamp": "2025-12-09T14:52:25.823119+00:00", "meta": {"OBJECT_NAME": "SENTINEL-2A", "OBJECT_ID": "2015-028A", "EPOCH": "2025-12-09T06:49:49.728576", "MEAN_MOTION": 14.30824517, "ECCENTRICITY": 0.00010384, "INCLINATION": 98.5693, "RA_OF_ASC_NODE": 55.8665, "ARG_OF_PERICENTER": 91.1132, "MEAN_ANOMALY": 269.017, "EPHEMERIS_TYPE": 0, "CLASSIFICATION_TYPE": "U", "NORAD_CAT_ID": 40697, "ELEMENT_SET_NO": 999, "REV_AT_EPOCH": 54657, "BSTAR": 1.6862042e-05, "MEAN_MOTION_DOT": 1e-08, "MEAN_MOTION_DDOT": 0}, "tle": {"line1": "1 40697U 15028A   25343.28460334  .00000001  00000+0  16862-4 0  9996", "line2": "2 40697  98.5693  55.8665 0001038  91.1132 269.0170 14.30824517546579"}}, "geometry": {"type": "Point", "coordinates": [84.6213704615002, -72.42316295457591]}}, {"type": "Feature", "properties": {"norad_id": 40701, "name": "GAOFEN-8", "group": "resource", "lat": -25.012475897188835, "lon": -22.00673808284203, "alt_km": 452.2681484735913, "timestamp": "2025-12-09T14:52:25.823130+00:00", "meta": {"OBJECT_NAME": "GAOFEN-8", "OBJECT_ID": "2015-030A", "EPOCH": "2025-12-09T07:44:28.407264", "MEAN_MOTION": 15.38370096, "ECCENTRICITY": 0.00114712, "INCLINATION": 97.6909, "RA_OF_ASC_NODE": 161.2968, "ARG_OF_PERICENTER": 149.5325, "MEAN_ANOMALY": 210.6588, "EPHEMERIS_TYPE": 0, "CLASSIFICATION_TYPE": "U", "NORAD_CAT_ID": 40701, "ELEMENT_SET_NO": 999, "REV_AT_EPOCH": 58218, "BSTAR": 0.00063298376, "MEAN_MOTION_DOT": 0.00023957, "MEAN_MOTION_DDOT": 0}, "tle": {"line1": "1 40701U 15030A   25343.32255101  .00023957  00000+0  63298-3 0  9993", "line2": "2 40701  97.6909 161.2968 0011471 149.5325 210.6588 15.38370096582186"}}, "geometry": {"type": "Point", "coordinates": [-22.00673808284203, -25.012475897188835]}}, {"type": "Feature", "properties": {"norad_id": 40718, "name": "CARBONITE 1 (CBNT-1)", "group": "resource", "lat": 40.906569943871354, "lon": 158.12178169268304, "alt_km": 626.1289072375785, "timestamp": "2025-12-09T14:52:25.823140+00:00", "meta": {"OBJECT_NAME": "CARBONITE 1 (CBNT-1)", "OBJECT_ID": "2015-032D", "EPOCH": "2025-12-09T06:35:21.139872", "MEAN_MOTION": 14.82716404, "ECCENTRICITY": 0.0014161, "INCLINATION": 97.6405, "RA_OF_ASC_NODE": 164.471, "ARG_OF_PERICENTER": 192.5866, "MEAN_ANOMALY": 167.4997, "EPHEMERIS_TYPE": 0, "CLASSIFICATION_TYPE": "U", "NORAD_CAT_ID": 40718, "ELEMENT_SET_NO": 999, "REV_AT_EPOCH": 56119, "BSTAR": 0.00024297836, "MEAN_MOTION_DOT": 1.914e-05, "MEAN_MOTION_DDOT": 0}, "tle": {"line1": "1 40718U 15032D   25343.27455023  .00001914  00000+0  24298-3 0  9998", "line2": "2 40718  97.6405 164.4710 0014161 192.5866 167.4997 14.82716404561198"}}, "geometry": {"type": "Point", "coordinates": [158.12178169268304, 40.906569943871354]}}, {"type": "Feature", "properties": {"norad_id": 40878, "name": "YAOGAN-27", "group": "resource", "lat": 10.96940230419709, "lon": 155.3601130418087, "alt_km": 1204.4227450735834, "timestamp": "2025-12-09T14:52:25.823150+00:00", "meta": {"OBJECT_NAME": "YAOGAN-27", "OBJECT_ID": "2015-040A", "EPOCH": "2025-12-09T06:43:13.259712", "MEAN_MOTION": 13.16059129, "ECCENTRICITY": 0.00076838, "INCLINATION": 100.1005, "RA_OF_ASC_NODE": 333.056, "ARG_OF_PERICENTER": 295.4886, "MEAN_ANOMALY": 64.5432, "EPHEMERIS_TYPE": 0, "CLASSIFICATION_TYPE": "U", "NORAD_CAT_ID": 40878, "ELEMENT_SET_NO": 999, "REV_AT_EPOCH": 49268, "BSTAR": 2.7569013e-05, "MEAN_MOTION_DOT": -3.2e-07, "MEAN_MOTION_DDOT": 0}, "tle": {"line1": "1 40878U 15040A   25343.28001458 -.00000032  00000+0  27569-4 0  9990", "line2": "2 40878 100.1005 333.0560 0007683 295.4886  64.5432 13.16059129492682"}}, "geometry": {"type": "Point", "coordinates": [155.3601130418087, 10.96940230419709]}}, {"type": "Feature", "properties": {"norad_id": 40894, "name": "GAOFEN-9 01", "group": "resource", "lat": -34.19279710298559, "lon": 27.95261545133501, "alt_km": 623.9352317279654, "timestamp": "2025-12-09T14:52:25.823163+00:00", "meta": {"OBJECT_NAME": "GAOFEN-9 01", "OBJECT_ID": "2015-047A", "EPOCH": "2025-12-09T06:55:44.594976", "MEAN_MOTION": 14.82409746, "ECCENTRICITY": 0.00286406, "INCLINATION": 97.6546, "RA_OF_ASC_NODE": 22.3932, "ARG_OF_PERICENTER": 45.2013, "MEAN_ANOMALY": 315.1522, "EPHEMERIS_TYPE": 0, "CLASSIFICATION_TYPE": "U", "NORAD_CAT_ID": 40894, "ELEMENT_SET_NO": 999, "REV_AT_EPOCH": 55205, "BSTAR": 0.00026914749, "MEAN_MOTION_DOT": 2.12e-05, "MEAN_MOTION_DDOT": 0}, "tle": {"line1": "1 40894U 15047A   25343.28871059  .00002120  00000+0  26915-3 0  9999", "line2": "2 40894  97.6546  22.3932 0028640  45.2013 315.1522 14.82409746552051"}}, "geometry": {"type": "Point", "coordinates": [27.95261545133501, -34.19279710298559]}}, {"type": "Feature", "properties": {"norad_id": 41026, "name": "YAOGAN-28", "group": "resource", "lat": 7.189986911903297, "lon": 120.57619752224386, "alt_km": 500.36909621804625, "timestamp": "2025-12-09T14:52:25.823174+00:00", "meta": {"OBJECT_NAME": "YAOGAN-28", "OBJECT_ID": "2015-064A", "EPOCH": "2025-12-09T06:57:51.640128", "MEAN_MOTION": 15.2425989, "ECCENTRICITY": 0.00122538, "INCLINATION": 97.2808, "RA_OF_ASC_NODE": 121.1802, "ARG_OF_PERICENTER": 137.3211, "MEAN_ANOMALY": 222.8981, "EPHEMERIS_TYPE": 0, "CLASSIFICATION_TYPE": "U", "NORAD_CAT_ID": 41026, "ELEMENT_SET_NO": 999, "REV_AT_EPOCH": 56172, "BSTAR": 0.00046640305, "MEAN_MOTION_DOT": 0.00011345, "MEAN_MOTION_DDOT": 0}, "tle": {"line1": "1 41026U 15064A   25343.29018102  .00011345  00000+0  46640-3 0  9995", "line2": "2 41026  97.2808 121.1802 0012253 137.3211 222.8981 15.24259890561723"}}, "geometry": {"type": "Point", "coordinates": [120.57619752224386, 7.189986911903297]}}, {"type": "Feature", "properties": {"norad_id": 41038, "name": "YAOGAN-29", "group": "resource", "lat": -28.230516160866692, "lon": -177.56099944346337, "alt_km": 626.35043571194, "timestamp": "2025-12-09T14:52:25.823184+00:00", "meta": {"OBJECT_NAME": "YAOGAN-29", "OBJECT_ID": "2015-069A", "EPOCH": "2025-12-09T07:27:32.211072", "MEAN_MOTION": 14.82879108, "ECCENTRICITY": 4.18e-05, "INCLINATION": 98.0217, "RA_OF_ASC_NODE": 6.4712, "ARG_OF_PERICENTER": 355.7698, "MEAN_ANOMALY": 4.3512, "EPHEMERIS_TYPE": 0, "CLASSIFICATION_TYPE": "U", "NORAD_CAT_ID": 41038, "ELEMENT_SET_NO": 999, "REV_AT_EPOCH": 54248, "BSTAR": 0.00017504368, "MEAN_MOTION_DOT": 1.364e-05, "MEAN_MOTION_DDOT": 0}, "tle": {"line1": "1 41038U 15069A   25343.31078948  .00001364  00000+0  17504-3 0  9997", "line2": "2 41038  98.0217   6.4712 0000418 355.7698   4.3512 14.82879108542487"}}, "geometry": {"type": "Point", "coordinates": [-177.56099944346337, -28.230516160866692]}}, {"type": "Feature", "properties": {"norad_id": 41167, "name": "KENT RIDGE 1", "group": "resource", "lat": -9.190512737036821, "lon": -162.9383223066371, "alt_km": 502.7008902695561, "timestamp": "2025-12-09T14:52:25.823195+00:00", "meta": {"OBJECT_NAME": "KENT RIDGE 1", "OBJECT_ID": "2015-077B", "EPOCH": "2025-12-08T23:18:29.879424", "MEAN_MOTION": 15.21589468, "ECCENTRICITY": 0.0008538, "INCLINATION": 14.979, "RA_OF_ASC_NODE": 239.1062, "ARG_OF_PERICENTER": 77.2496, "MEAN_ANOMALY": 282.878, "EPHEMERIS_TYPE": 0, "CLASSIFICATION_TYPE": "U", "NORAD_CAT_ID": 41167, "ELEMENT_SET_NO": 999, "REV_AT_EPOCH": 55206, "BSTAR": 0.00022039, "MEAN_MOTION_DOT": 5.884e-05, "MEAN_MOTION_DDOT": 0}, "tle": {"line1": "1 41167U 15077B   25342.97117916  .00005884  00000+0  22039-3 0  9999", "line2": "2 41167  14.9790 239.1062 0008538  77.2496 282.8780 15.21589468552065"}}, "geometry": {"type": "Point", "coordinates": [-162.9383223066371, -9.190512737036821]}}, {"type": "Feature", "properties": {"norad_id": 41194, "name": "GAOFEN-4", "group": "resource", "lat": -0.06953246427047823, "lon": 47.390607079393526, "alt_km": 35798.13817885712, "timestamp": "2025-12-09T14:52:25.823207+00:00", "meta": {"OBJECT_NAME": "GAOFEN-4", "OBJECT_ID": "2015-083A", "EPOCH": "2025-12-09T00:22:47.064000", "MEAN_MOTION": 1.00270911, "ECCENTRICITY": 0.00036276, "INCLINATION": 0.1609, "RA_OF_ASC_NODE": 80.6946, "ARG_OF_PERICENTER": 106.7921, "MEAN_ANOMALY": 1.9288, "EPHEMERIS_TYPE": 0, "CLASSIFICATION_TYPE": "U", "NORAD_CAT_ID": 41194, "ELEMENT_SET_NO": 999, "REV_AT_EPOCH": 3662, "BSTAR": 0, "MEAN_MOTION_DOT": -3.33e-06, "MEAN_MOTION_DDOT": 0}, "tle": {"line1": "1 41194U 15083A   25343.01582250 -.00000333  00000+0  00000+0 0  9994", "line2": "2 41194   0.1609  80.6946 0003627 106.7921   1.9288  1.00270911 36620"}}, "geometry": {"type": "Point", "coordinates": [47.390607079393526, -0.06953246427047823]}}, {"type": "Feature", "properties": {"norad_id": 41240, "name": "JASON-3", "group": "resource", "lat": -59.349508672937624, "lon": 33.006858786398446, "alt_km": 1312.0475828422914, "timestamp": "2025-12-09T14:52:25.823219+00:00", "meta": {"OBJECT_NAME": "JASON-3", "OBJECT_ID": "2016-002A", "EPOCH": "2025-12-09T06:07:17.717088", "MEAN_MOTION": 12.87626367, "ECCENTRICITY": 0.00071329, "INCLINATION": 66.0389, "RA_OF_ASC_NODE": 165.1505, "ARG_OF_PERICENTER": 270.6063, "MEAN_ANOMALY": 89.4138, "EPHEMERIS_TYPE": 0, "CLASSIFICATION_TYPE": "U", "NORAD_CAT_ID": 41240, "ELEMENT_SET_NO": 999, "REV_AT_EPOCH": 46279, "BSTAR": 7.7549599e-05, "MEAN_MOTION_DOT": -4.3e-07, "MEAN_MOTION_DDOT": 0}, "tle": {"line1": "1 41240U 16002A   25343.25506617 -.00000043  00000+0  77550-4 0  9994", "line2": "2 41240  66.0389 165.1505 0007132 270.6063  89.4138 12.87626367462794"}}, "geometry": {"type": "Point", "coordinates": [33.006858786398446, -59.349508672937624]}}]}